GNOMES-1                
1 46266U 20059B   26068.53916665  .00004080  00000+0  33422-3 0  9991
2 46266  97.8057 278.7760 0005451 357.8604   2.2595 14.99848479300657
STARLINK-33993          
1 63949U 25098Z   26068.80554868 -.00087772  00000+0 -74293-2 0  9990
2 63949  70.0003 273.9954 0002378 281.9857  78.1036 14.98390673 46579
